STARLINK-30546          
1 58003U 23153N   26068.37044253 -.00000359  00000+0 -37030-5 0  9996
2 58003  43.0003  68.3277 0001304 275.3753  84.6949 15.26738496134853
YAOGAN-43 01G           
1 60464U 24148G   26068.44348481  .00010133  00000+0  35873-3 0  9993
2 60464  35.0006  62.0013 0007382 306.3543  53.6492 15.28332833 87004
